{
  "type": "FeatureCollection",
  "features": [
    {
      "type": "Feature",
      "properties": {
        "norad_id": 29887,
        "name": "FENGYUN 1C DEB",
        "group": "fengyun-1c-debris",
        "lat": 36.34151021137445,
        "lon": -95.87719440522595,
        "alt_km": 979.169431143423,
        "timestamp": "2025-12-21T22:41:41.731958+00:00",
        "meta_object_name": "FENGYUN 1C DEB",
        "meta_object_id": "1999-025GH",
        "meta_epoch": "2025-12-21T00:49:53.253696",
        "meta_mean_motion": 14.33741561,
        "meta_eccentricity": 0.02865083,
        "meta_inclination": 98.7176,
        "meta_ra_of_asc_node": 76.7223,
        "meta_arg_of_pericenter": 334.6271,
        "meta_mean_anomaly": 148.6309,
        "meta_ephemeris_type": 0,
        "meta_classification_type": "U",
        "meta_norad_cat_id": 29887,
        "meta_element_set_no": 999,
        "meta_rev_at_epoch": 98093,
        "meta_bstar": 0.00035917377,
        "meta_mean_motion_dot": 1.522e-05,
        "meta_mean_motion_ddot": 0,
        "tle_line1": "1 29887U 99025GH  25355.03464414  .00001522  00000+0  35917-3 0  9992",
        "tle_line2": "2 29887  98.7176  76.7223 0286508 334.6271 148.6309 14.33741561980931"
      },
      "geometry": {
        "type": "Point",
        "coordinates": [
          -95.87719440522595,
          36.34151021137445
        ]
      }
    },
    {
      "type": "Feature",
      "properties": {
        "norad_id": 29888,
        "name": "FENGYUN 1C DEB",
        "group": "fengyun-1c-debris",
        "lat": 53.331416842423316,
        "lon": 21.581250930378673,
        "alt_km": 934.521742782159,
        "timestamp": "2025-12-21T22:41:41.731968+00:00",
        "meta_object_name": "FENGYUN 1C DEB",
        "meta_object_id": "1999-025GJ",
        "meta_epoch": "2025-12-21T11:58:12.846720",
        "meta_mean_motion": 14.19874371,
        "meta_eccentricity": 0.02747062,
        "meta_inclination": 99.1913,
        "meta_ra_of_asc_node": 188.5563,
        "meta_arg_of_pericenter": 0.4841,
        "meta_mean_anomaly": 359.6551,
        "meta_ephemeris_type": 0,
        "meta_classification_type": "U",
        "meta_norad_cat_id": 29888,
        "meta_element_set_no": 999,
        "meta_rev_at_epoch": 97628,
        "meta_bstar": 0.00029834463,
        "meta_mean_motion_dot": 8.69e-06,
        "meta_mean_motion_ddot": 0,
        "tle_line1": "1 29888U 99025GJ  25355.49875980  .00000869  00000+0  29834-3 0  9991",
        "tle_line2": "2 29888  99.1913 188.5563 0274706   0.4841 359.6551 14.19874371976289"
      },
      "geometry": {
        "type": "Point",
        "coordinates": [
          21.581250930378673,
          53.331416842423316
        ]
      }
    },
    {
      "type": "Feature",
      "properties": {
        "norad_id": 29889,
        "name": "FENGYUN 1C DEB",
        "group": "fengyun-1c-debris",
        "lat": -4.847212077994673,
        "lon": 114.69792330470517,
        "alt_km": 744.9199118510651,
        "timestamp": "2025-12-21T22:41:41.731978+00:00",
        "meta_object_name": "FENGYUN 1C DEB",
        "meta_object_id": "1999-025GK",
        "meta_epoch": "2025-12-21T07:42:15.042816",
        "meta_mean_motion": 14.13520818,
        "meta_eccentricity": 0.0154129,
        "meta_inclination": 99.4773,
        "meta_ra_of_asc_node": 113.2247,
        "meta_arg_of_pericenter": 15.2466,
        "meta_mean_anomaly": 43.7846,
        "meta_ephemeris_type": 0,
        "meta_classification_type": "U",
        "meta_norad_cat_id": 29889,
        "meta_element_set_no": 999,
        "meta_rev_at_epoch": 97440,
        "meta_bstar": 0.00022073,
        "meta_mean_motion_dot": 4.16e-06,
        "meta_mean_motion_ddot": 0,
        "tle_line1": "1 29889U 99025GK  25355.32100744  .00000416  00000+0  22073-3 0  9999",
        "tle_line2": "2 29889  99.4773 113.2247 0154129  15.2466  43.7846 14.13520818974402"
      },
      "geometry": {
        "type": "Point",
        "coordinates": [
          114.69792330470517,
          -4.847212077994673
        ]
      }
    },
    {
      "type": "Feature",
      "properties": {
        "norad_id": 29890,
        "name": "FENGYUN 1C DEB",
        "group": "fengyun-1c-debris",
        "lat": 4.825899131317074,
        "lon": -61.03695625870306,
        "alt_km": 823.4955181815621,
        "timestamp": "2025-12-21T22:41:41.731988+00:00",
        "meta_object_name": "FENGYUN 1C DEB",
        "meta_object_id": "1999-025GL",
        "meta_epoch": "2025-12-21T06:41:22.532928",
        "meta_mean_motion": 14.23066362,
        "meta_eccentricity": 0.00144811,
        "meta_inclination": 99.4686,
        "meta_ra_of_asc_node": 117.4392,
        "meta_arg_of_pericenter": 49.8878,
        "meta_mean_anomaly": 310.3564,
        "meta_ephemeris_type": 0,
        "meta_classification_type": "U",
        "meta_norad_cat_id": 29890,
        "meta_element_set_no": 999,
        "meta_rev_at_epoch": 97572,
        "meta_bstar": 0.00065565297,
        "meta_mean_motion_dot": 1.43e-05,
        "meta_mean_motion_ddot": 0,
        "tle_line1": "1 29890U 99025GL  25355.27873302  .00001430  00000+0  65565-3 0  9992",
        "tle_line2": "2 29890  99.4686 117.4392 0014481  49.8878 310.3564 14.23066362975726"
      },
      "geometry": {
        "type": "Point",
        "coordinates": [
          -61.03695625870306,
          4.825899131317074
        ]
      }
    },
    {
      "type": "Feature",
      "properties": {
        "norad_id": 29891,
        "name": "FENGYUN 1C DEB",
        "group": "fengyun-1c-debris",
        "lat": 55.28798486360605,
        "lon": -15.161918373658349,
        "alt_km": 932.8441257677578,
        "timestamp": "2025-12-21T22:41:41.731999+00:00",
        "meta_object_name": "FENGYUN 1C DEB",
        "meta_object_id": "1999-025GM",
        "meta_epoch": "2025-12-21T12:44:54.869568",
        "meta_mean_motion": 14.0000969,
        "meta_eccentricity": 0.00610665,
        "meta_inclination": 98.727,
        "meta_ra_of_asc_node": 357.2532,
        "meta_arg_of_pericenter": 235.6062,
        "meta_mean_anomaly": 253.1519,
        "meta_ephemeris_type": 0,
        "meta_classification_type": "U",
        "meta_norad_cat_id": 29891,
        "meta_element_set_no": 999,
        "meta_rev_at_epoch": 96611,
        "meta_bstar": 0.00048315718,
        "meta_mean_motion_dot": 6.8e-06,
        "meta_mean_motion_ddot": 0,
        "tle_line1": "1 29891U 99025GM  25355.53119062  .00000680  00000+0  48316-3 0  9999",
        "tle_line2": "2 29891  98.7270 357.2532 0061066 235.6062 253.1519 14.00009690966112"
      },
      "geometry": {
        "type": "Point",
        "coordinates": [
          -15.161918373658349,
          55.28798486360605
        ]
      }
    },
    {
      "type": "Feature",
      "properties": {
        "norad_id": 29892,
        "name": "FENGYUN 1C DEB",
        "group": "fengyun-1c-debris",
        "lat": 79.67806699848057,
        "lon": 26.650627039303625,
        "alt_km": 913.7474692136793,
        "timestamp": "2025-12-21T22:41:41.732009+00:00",
        "meta_object_name": "FENGYUN 1C DEB",
        "meta_object_id": "1999-025GN",
        "meta_epoch": "2025-12-21T08:58:09.228288",
        "meta_mean_motion": 14.32338021,
        "meta_eccentricity": 0.0192124,
        "meta_inclination": 99.1804,
        "meta_ra_of_asc_node": 143.4292,
        "meta_arg_of_pericenter": 272.391,
        "meta_mean_anomaly": 115.1562,
        "meta_ephemeris_type": 0,
        "meta_classification_type": "U",
        "meta_norad_cat_id": 29892,
        "meta_element_set_no": 999,
        "meta_rev_at_epoch": 96773,
        "meta_bstar": 0.0024664783,
        "meta_mean_motion_dot": 8.126e-05,
        "meta_mean_motion_ddot": 0,
        "tle_line1": "1 29892U 99025GN  25355.37371792  .00008126  00000+0  24665-2 0  9995",
        "tle_line2": "2 29892  99.1804 143.4292 0192124 272.3910 115.1562 14.32338021967731"
      },
      "geometry": {
        "type": "Point",
        "coordinates": [
          26.650627039303625,
          79.67806699848057
        ]
      }
    },
    {
      "type": "Feature",
      "properties": {
        "norad_id": 29893,
        "name": "FENGYUN 1C DEB",
        "group": "fengyun-1c-debris",
        "lat": -81.36821248648776,
        "lon": 173.58749795957505,
        "alt_km": 1073.6712667584388,
        "timestamp": "2025-12-21T22:41:41.732020+00:00",
        "meta_object_name": "FENGYUN 1C DEB",
        "meta_object_id": "1999-025GP",
        "meta_epoch": "2025-12-21T12:48:44.113824",
        "meta_mean_motion": 13.79465349,
        "meta_eccentricity": 0.01739195,
        "meta_inclination": 98.5531,
        "meta_ra_of_asc_node": 90.755,
        "meta_arg_of_pericenter": 129.7201,
        "meta_mean_anomaly": 256.3792,
        "meta_ephemeris_type": 0,
        "meta_classification_type": "U",
        "meta_norad_cat_id": 29893,
        "meta_element_set_no": 999,
        "meta_rev_at_epoch": 95261,
        "meta_bstar": 0.00016560092,
        "meta_mean_motion_dot": 1.54e-06,
        "meta_mean_motion_ddot": 0,
        "tle_line1": "1 29893U 99025GP  25355.53384391  .00000154  00000+0  16560-3 0  9992",
        "tle_line2": "2 29893  98.5531  90.7550 0173919 129.7201 256.3792 13.79465349952610"
      },
      "geometry": {
        "type": "Point",
        "coordinates": [
          173.58749795957505,
          -81.36821248648776
        ]
      }
    }
  ]
}